{
  "norad_id": 66528,
  "name": "STARLINK-35928",
  "history": [
    {
      "epoch": "2026-03-28T05:57:50.079456Z",
      "apogee_km": 483.93946333441727,
      "perigee_km": 482.06500009631145,
      "latitude_deg": -1.2155784270807644e-06,
      "longitude_deg": -102.17323048862897,
      "height_km": 483.0118590945513,
      "semi_major_axis_km": 6861.139231715364,
      "eccentricity": 0.0001366,
      "inclination_deg": 42.9989,
      "raan_deg": 172.9571,
      "arg_perigee_deg": 255.5958,
      "mean_anomaly_deg": 104.4742,
      "mean_motion_rev_day": 15.27595651
    },
    {
      "epoch": "2026-03-29T05:30:11.169216Z",
      "apogee_km": 484.2460627921473,
      "perigee_km": 481.6772674519243,
      "latitude_deg": -1.9800885268665706e-06,
      "longitude_deg": -101.76612572833353,
      "height_km": 482.4927591118596,
      "semi_major_axis_km": 6861.0986651220355,
      "eccentricity": 0.0001872,
      "inclination_deg": 43.0007,
      "raan_deg": 167.4188,
      "arg_perigee_deg": 281.0451,
      "mean_anomaly_deg": 79.019,
      "mean_motion_rev_day": 15.27609199
    },
    {
      "epoch": "2026-03-30T05:02:32.188992Z",
      "apogee_km": 484.6642821979458,
      "perigee_km": 481.3187959222996,
      "latitude_deg": 2.2742320763500725e-05,
      "longitude_deg": -101.35860057756783,
      "height_km": 482.2183684392307,
      "semi_major_axis_km": 6861.128539060122,
      "eccentricity": 0.0002438,
      "inclination_deg": 42.9987,
      "raan_deg": 161.8806,
      "arg_perigee_deg": 289.2139,
      "mean_anomaly_deg": 70.8449,
      "mean_motion_rev_day": 15.27599222
    }
  ]
}